{
"type": "FeatureCollection",
"name": "poi",
"crs": { "type": "name", "properties": { "name": "urn:ogc:def:crs:EPSG::32636" } },
"features": [
{ "type": "Feature", "properties": { "Name": "عسلاتنا", "texte": "إستكشف عالم النحل ودوره في إنتاج العسل الفاخر من زهر الزيتون، وتذوّق طعمه اللذيذ المميّز", "audio_text": "Explore the world of bees and their role in producing premium honey from olive blossoms, and savor its distinctive, delicious taste.\n", "type": "instructive", "quiz_q": "Combien de fleurs une abeille butine-t-elle en moyenne pour produire une seule cuillère de miel ?", "quiz_opts": "Une dizaine|Plusieurs centaines|Plusieurs milliers", "quiz_correct": "2", "quiz_fact": "Il faut environ 4000 fleurs butinées pour produire une seule cuillère à café de miel — d'où la valeur de ce miel de fleurs d'olivier.", "fragment_icon": "🐝", "fragment_label": "Savoir", "approche_text": "Vous approchez  du premier point d'intéret" }, "geometry": { "type": "Point", "coordinates": [ 760028.676967892912216, 3788134.706630218308419 ] } },
{ "type": "Feature", "properties": { "Name": "خوابينا", "texte": "تعرّف على طرق استخراج الزيت الفاخر المتنوّعة وأواني حفظه للمحافظة على جودته", "audio_text": "Discover the various methods of extracting premium olive oil and the containers used to store it in order to preserve its quality.\n", "type": "sensorielle", "fragment_icon": "🫒", "fragment_label": "Écho", "fragment_text": "Le grincement de la meule et l'odeur de l'huile fraîchement pressée.", "approche_text": "Vous approchez  du premier point d'intéret" }, "geometry": { "type": "Point", "coordinates": [ 760075.560729636228643, 3788137.894373023416847 ] } },
{ "type": "Feature", "properties": { "Name": "عسلاتنا", "texte": "إستكشف عالم النحل ودوره في إنتاج العسل الفاخر من زهر الزيتون، وتذوّق طعمه اللذيذ المميّز", "audio_text": "Explore the world of bees and their role in producing premium honey from olive blossoms, and savor its distinctive, delicious taste.\n", "type": "instructive", "quiz_q": "Combien de fleurs une abeille butine-t-elle en moyenne pour produire une seule cuillère de miel ?", "quiz_opts": "Une dizaine|Plusieurs centaines|Plusieurs milliers", "quiz_correct": "2", "quiz_fact": "Il faut environ 4000 fleurs butinées pour produire une seule cuillère à café de miel — d'où la valeur de ce miel de fleurs d'olivier.", "fragment_icon": "🐝", "fragment_label": "Savoir", "fragment_text": null, "approche_text": "Vous approchez  du premier point d'intéret" }, "geometry": { "type": "Point", "coordinates": [ 760036.296529009239748, 3788139.812932956032455 ] } }
]
}
